[{"OBJECT_NAME":"ONEWEB-0393","OBJECT_ID":"2021-132E","EPOCH":"2025-09-17T23:23:09.962304","MEAN_MOTION":13.17647262,"ECCENTRICITY":0.00018767,"INCLINATION":87.9056,"RA_OF_ASC_NODE":59.9976,"ARG_OF_PERICENTER":91.5415,"MEAN_ANOMALY":268.5932,"EPHEMERIS_TYPE":0,"CLASSIFICATION_TYPE":"U","NORAD_CAT_ID":50473,"ELEMENT_SET_NO":999,"REV_AT_EPOCH":18226,"BSTAR":-3.8286508e-5,"MEAN_MOTION_DOT":-2.0e-8,"MEAN_MOTION_DDOT":0},{"OBJECT_NAME":"ONEWEB-0394","OBJECT_ID":"2021-132F","EPOCH":"2025-09-17T20:28:14.466144","MEAN_MOTION":13.18684722,"ECCENTRICITY":0.00018946,"INCLINATION":87.9193,"RA_OF_ASC_NODE":29.5152,"ARG_OF_PERICENTER":94.2093,"MEAN_ANOMALY":265.9255,"EPHEMERIS_TYPE":0,"CLASSIFICATION_TYPE":"U","NORAD_CAT_ID":50474,"ELEMENT_SET_NO":999,"REV_AT_EPOCH":18570,"BSTAR":-0.00033056487,"MEAN_MOTION_DOT":-1.17e-6,"MEAN_MOTION_DDOT":0},{"OBJECT_NAME":"ONEWEB-0395","OBJECT_ID":"2021-132G","EPOCH":"2025-09-18T00:23:43.385568","MEAN_MOTION":13.11418123,"ECCENTRICITY":0.00018883,"INCLINATION":87.8774,"RA_OF_ASC_NODE":75.3005,"ARG_OF_PERICENTER":95.7659,"MEAN_ANOMALY":264.3684,"EPHEMERIS_TYPE":0,"CLASSIFICATION_TYPE":"U","NORAD_CAT_ID":50475,"ELEMENT_SET_NO":999,"REV_AT_EPOCH":18004,"BSTAR":0.0015346505,"MEAN_MOTION_DOT":5.57e-6,"MEAN_MOTION_DDOT":0},{"OBJECT_NAME":"ONEWEB-0396","OBJECT_ID":"2021-132H","EPOCH":"2025-09-18T07:14:18.478464","MEAN_MOTION":13.18685643,"ECCENTRICITY":0.00018914,"INCLINATION":87.9197,"RA_OF_ASC_NODE":29.4381,"ARG_OF_PERICENTER":95.4878,"MEAN_ANOMALY":264.647,"EPHEMERIS_TYPE":0,"CLASSIFICATION_TYPE":"U","NORAD_CAT_ID":50476,"ELEMENT_SET_NO":999,"REV_AT_EPOCH":18580,"BSTAR":-7.3540574e-5,"MEAN_MOTION_DOT":-1.6e-7,"MEAN_MOTION_DDOT":0},{"OBJECT_NAME":"ONEWEB-0397","OBJECT_ID":"2021-132J","EPOCH":"2025-09-17T20:40:07.854528","MEAN_MOTION":13.18685601,"ECCENTRICITY":0.00017817,"INCLINATION":87.9194,"RA_OF_ASC_NODE":29.5265,"ARG_OF_PERICENTER":91.6209,"MEAN_ANOMALY":268.5127,"EPHEMERIS_TYPE":0,"CLASSIFICATION_TYPE":"U","NORAD_CAT_ID":50477,"ELEMENT_SET_NO":999,"REV_AT_EPOCH":18572,"BSTAR":-4.8095667e-5,"MEAN_MOTION_DOT":-6.0e-8,"MEAN_MOTION_DDOT":0},{"OBJECT_NAME":"ONEWEB-0398","OBJECT_ID":"2021-132K","EPOCH":"2025-09-17T23:37:18.047424","MEAN_MOTION":13.11419086,"ECCENTRICITY":0.00017744,"INCLINATION":87.8784,"RA_OF_ASC_NODE":75.273,"ARG_OF_PERICENTER":104.717,"MEAN_ANOMALY":255.4155,"EPHEMERIS_TYPE":0,"CLASSIFICATION_TYPE":"U","NORAD_CAT_ID":50478,"ELEMENT_SET_NO":999,"REV_AT_EPOCH":17993,"BSTAR":-0.0012150849,"MEAN_MOTION_DOT":-4.18e-6,"MEAN_MOTION_DDOT":0},{"OBJECT_NAME":"ONEWEB-0399","OBJECT_ID":"2021-132L","EPOCH":"2025-09-18T01:07:38.696160","MEAN_MOTION":13.11414672,"ECCENTRICITY":0.00021437,"INCLINATION":87.8776,"RA_OF_ASC_NODE":75.2814,"ARG_OF_PERICENTER":80.9794,"MEAN_ANOMALY":279.1577,"EPHEMERIS_TYPE":0,"CLASSIFICATION_TYPE":"U","NORAD_CAT_ID":50479,"ELEMENT_SET_NO":999,"REV_AT_EPOCH":17993,"BSTAR":-0.0012469949,"MEAN_MOTION_DOT":-4.29e-6,"MEAN_MOTION_DDOT":0},{"OBJECT_NAME":"ONEWEB-0400","OBJECT_ID":"2021-132M","EPOCH":"2025-09-18T07:04:49.068768","MEAN_MOTION":13.18686359,"ECCENTRICITY":0.00017876,"INCLINATION":87.9193,"RA_OF_ASC_NODE":29.4305,"ARG_OF_PERICENTER":105.2813,"MEAN_ANOMALY":254.8516,"EPHEMERIS_TYPE":0,"CLASSIFICATION_TYPE":"U","NORAD_CAT_ID":50480,"ELEMENT_SET_NO":999,"REV_AT_EPOCH":18577,"BSTAR":0.00022933059,"MEAN_MOTION_DOT":1.03e-6,"MEAN_MOTION_DDOT":0},{"OBJECT_NAME":"ONEWEB-0401","OBJECT_ID":"2021-132N","EPOCH":"2025-09-17T21:13:23.380032","MEAN_MOTION":13.18686577,"ECCENTRICITY":0.00016317,"INCLINATION":87.9195,"RA_OF_ASC_NODE":29.5086,"ARG_OF_PERICENTER":92.5478,"MEAN_ANOMALY":267.5841,"EPHEMERIS_TYPE":0,"CLASSIFICATION_TYPE":"U","NORAD_CAT_ID":50481,"ELEMENT_SET_NO":999,"REV_AT_EPOCH":18572,"BSTAR":-0.00019750113,"MEAN_MOTION_DOT":-6.5e-7,"MEAN_MOTION_DDOT":0},{"OBJECT_NAME":"ONEWEB-0402","OBJECT_ID":"2021-132P","EPOCH":"2025-09-17T22:10:24.151296","MEAN_MOTION":13.18686635,"ECCENTRICITY":0.00013197,"INCLINATION":87.9195,"RA_OF_ASC_NODE":29.4941,"ARG_OF_PERICENTER":80.6069,"MEAN_ANOMALY":279.5212,"EPHEMERIS_TYPE":0,"CLASSIFICATION_TYPE":"U","NORAD_CAT_ID":50482,"ELEMENT_SET_NO":999,"REV_AT_EPOCH":18575,"BSTAR":-2.0369767e-5,"MEAN_MOTION_DOT":5.0e-8,"MEAN_MOTION_DDOT":0},{"OBJECT_NAME":"ONEWEB-0403","OBJECT_ID":"2021-132Q","EPOCH":"2025-09-17T20:56:44.935584","MEAN_MOTION":13.18685108,"ECCENTRICITY":0.0001884,"INCLINATION":87.9197,"RA_OF_ASC_NODE":29.5232,"ARG_OF_PERICENTER":98.1579,"MEAN_ANOMALY":261.9767,"EPHEMERIS_TYPE":0,"CLASSIFICATION_TYPE":"U","NORAD_CAT_ID":50483,"ELEMENT_SET_NO":999,"REV_AT_EPOCH":18570,"BSTAR":1.2600443e-5,"MEAN_MOTION_DOT":1.8e-7,"MEAN_MOTION_DDOT":0},{"OBJECT_NAME":"ONEWEB-0404","OBJECT_ID":"2021-132R","EPOCH":"2025-09-18T00:40:47.448480","MEAN_MOTION":13.11416091,"ECCENTRICITY":0.00020517,"INCLINATION":87.8776,"RA_OF_ASC_NODE":75.2917,"ARG_OF_PERICENTER":88.2476,"MEAN_ANOMALY":271.8887,"EPHEMERIS_TYPE":0,"CLASSIFICATION_TYPE":"U","NORAD_CAT_ID":50484,"ELEMENT_SET_NO":999,"REV_AT_EPOCH":18002,"BSTAR":0.00077790971,"MEAN_MOTION_DOT":2.88e-6,"MEAN_MOTION_DDOT":0},{"OBJECT_NAME":"ONEWEB-0405","OBJECT_ID":"2021-132S","EPOCH":"2025-09-17T21:18:09.694080","MEAN_MOTION":13.18674309,"ECCENTRICITY":0.00026508,"INCLINATION":87.9226,"RA_OF_ASC_NODE":29.5055,"ARG_OF_PERICENTER":83.9684,"MEAN_ANOMALY":276.175,"EPHEMERIS_TYPE":0,"CLASSIFICATION_TYPE":"U","NORAD_CAT_ID":50485,"ELEMENT_SET_NO":999,"REV_AT_EPOCH":18610,"BSTAR":-0.0003436081,"MEAN_MOTION_DOT":-1.23e-6,"MEAN_MOTION_DDOT":0},{"OBJECT_NAME":"ONEWEB-0406","OBJECT_ID":"2021-132T","EPOCH":"2025-09-17T21:03:52.775424","MEAN_MOTION":13.18685181,"ECCENTRICITY":0.00023173,"INCLINATION":87.9196,"RA_OF_ASC_NODE":29.5311,"ARG_OF_PERICENTER":104.0979,"MEAN_ANOMALY":256.0411,"EPHEMERIS_TYPE":0,"CLASSIFICATION_TYPE":"U","NORAD_CAT_ID":50486,"ELEMENT_SET_NO":999,"REV_AT_EPOCH":18573,"BSTAR":-2.3622779e-5,"MEAN_MOTION_DOT":4.0e-8,"MEAN_MOTION_DDOT":0},{"OBJECT_NAME":"ONEWEB-0407","OBJECT_ID":"2021-132U","EPOCH":"2025-09-17T20:54:22.964832","MEAN_MOTION":13.18685357,"ECCENTRICITY":0.00015807,"INCLINATION":87.9195,"RA_OF_ASC_NODE":29.5172,"ARG_OF_PERICENTER":98.6987,"MEAN_ANOMALY":261.4324,"EPHEMERIS_TYPE":0,"CLASSIFICATION_TYPE":"U","NORAD_CAT_ID":50487,"ELEMENT_SET_NO":999,"REV_AT_EPOCH":18567,"BSTAR":0.00029356552,"MEAN_MOTION_DOT":1.29e-6,"MEAN_MOTION_DDOT":0},{"OBJECT_NAME":"ONEWEB-0409","OBJECT_ID":"2021-132V","EPOCH":"2025-09-18T00:38:21.028992","MEAN_MOTION":13.11416392,"ECCENTRICITY":0.00020134,"INCLINATION":87.8781,"RA_OF_ASC_NODE":75.252,"ARG_OF_PERICENTER":94.923,"MEAN_ANOMALY":265.2127,"EPHEMERIS_TYPE":0,"CLASSIFICATION_TYPE":"U","NORAD_CAT_ID":50488,"ELEMENT_SET_NO":999,"REV_AT_EPOCH":17991,"BSTAR":0.0008685366,"MEAN_MOTION_DOT":3.21e-6,"MEAN_MOTION_DDOT":0},{"OBJECT_NAME":"ONEWEB-0412","OBJECT_ID":"2021-132W","EPOCH":"2025-09-17T20:37:44.653440","MEAN_MOTION":13.18685508,"ECCENTRICITY":0.00016056,"INCLINATION":87.9194,"RA_OF_ASC_NODE":29.532,"ARG_OF_PERICENTER":87.9615,"MEAN_ANOMALY":272.1701,"EPHEMERIS_TYPE":0,"CLASSIFICATION_TYPE":"U","NORAD_CAT_ID":50489,"ELEMENT_SET_NO":999,"REV_AT_EPOCH":18576,"BSTAR":-0.00048250069,"MEAN_MOTION_DOT":-1.77e-6,"MEAN_MOTION_DDOT":0}]
