ONEWEB-0393             
1 50473U 21132E   25260.97442086 -.00000002  00000+0 -38287-4 0  9998
2 50473  87.9056  59.9976 0001876  91.5415 268.5932 13.17647262182261
ONEWEB-0394             
1 50474U 21132F   25260.85294521 -.00000117  00000+0 -33056-3 0  9990
2 50474  87.9193  29.5152 0001894  94.2093 265.9255 13.18684722185709
ONEWEB-0395             
1 50475U 21132G   25261.01647437  .00000557  00000+0  15347-2 0  9996
2 50475  87.8774  75.3005 0001888  95.7659 264.3684 13.11418123180041
ONEWEB-0396             
1 50476U 21132H   25261.30160276 -.00000016  00000+0 -73541-4 0  9994
2 50476  87.9197  29.4381 0001891  95.4878 264.6470 13.18685643185808
ONEWEB-0397             
1 50477U 21132J   25260.86120202 -.00000006  00000+0 -48096-4 0  9996
2 50477  87.9194  29.5265 0001781  91.6209 268.5127 13.18685601185729
ONEWEB-0398             
1 50478U 21132K   25260.98423666 -.00000418  00000+0 -12151-2 0  9998
2 50478  87.8784  75.2730 0001774 104.7170 255.4155 13.11419086179931
ONEWEB-0399             
1 50479U 21132L   25261.04697565 -.00000429  00000+0 -12470-2 0  9994
2 50479  87.8776  75.2814 0002143  80.9794 279.1577 13.11414672179931
ONEWEB-0400             
1 50480U 21132M   25261.29501237  .00000103  00000+0  22933-3 0  9996
2 50480  87.9193  29.4305 0001787 105.2813 254.8516 13.18686359185771
ONEWEB-0401             
1 50481U 21132N   25260.88429838 -.00000065  00000+0 -19750-3 0  9999
2 50481  87.9195  29.5086 0001631  92.5478 267.5841 13.18686577185723
ONEWEB-0402             
1 50482U 21132P   25260.92389064  .00000005  00000+0 -20370-4 0  9995
2 50482  87.9195  29.4941 0001319  80.6069 279.5212 13.18686635185753
ONEWEB-0403             
1 50483U 21132Q   25260.87274231  .00000018  00000+0  12600-4 0  9999
2 50483  87.9197  29.5232 0001884  98.1579 261.9767 13.18685108185706
ONEWEB-0404             
1 50484U 21132R   25261.02832695  .00000288  00000+0  77791-3 0  9992
2 50484  87.8776  75.2917 0002051  88.2476 271.8887 13.11416091180029
ONEWEB-0405             
1 50485U 21132S   25260.88761220 -.00000123  00000+0 -34361-3 0  9997
2 50485  87.9226  29.5055 0002650  83.9684 276.1750 13.18674309186101
ONEWEB-0406             
1 50486U 21132T   25260.87769416  .00000004  00000+0 -23623-4 0  9999
2 50486  87.9196  29.5311 0002317 104.0979 256.0411 13.18685181185734
ONEWEB-0407             
1 50487U 21132U   25260.87109913  .00000129  00000+0  29357-3 0  9996
2 50487  87.9195  29.5172 0001580  98.6987 261.4324 13.18685357185678
ONEWEB-0409             
1 50488U 21132V   25261.02663228  .00000321  00000+0  86854-3 0  9998
2 50488  87.8781  75.2520 0002013  94.9230 265.2127 13.11416392179913
ONEWEB-0412             
1 50489U 21132W   25260.85954460 -.00000177  00000+0 -48250-3 0  9999
2 50489  87.9194  29.5320 0001605  87.9615 272.1701 13.18685508185767
